NORAD_CAT_ID,OBJECT_NAME,OBJECT_TYPE,EPOCH,MEAN_MOTION,ECCENTRICITY,INCLINATION,RA_OF_ASC_NODE,ARG_OF_PERICENTER,MEAN_ANOMALY,BSTAR,MEAN_MOTION_DOT,MEAN_MOTION_DDOT,TLE_LINE0,TLE_LINE1,TLE_LINE2,SEMIMAJOR_AXIS,PERIOD,APOGEE,PERIGEE,DECAYED
54802.0,STARLINK-5426,PAYLOAD,2023-10-03 14:05:21,15.08857078,0.000152,53.2189,15.4266,74.8123,285.3038,0.0012309,0.00019365,0.0,0 STARLINK-5426,1 54802U 22175AW  23276.58705867  .00019365  00000-0  12309-2 0  9993,2 54802  53.2189  15.4266 0001520  74.8123 285.3038 15.08857078 46622,6917.828,95.436,540.745,538.642,0.0
54802.0,STARLINK-5426,PAYLOAD,2023-10-04 10:45:22,15.08850885,0.0001876,53.2191,11.5614,58.0415,302.076,0.00046851,7.178e-05,0.0,0 STARLINK-5426,1 54802U 22175AW  23277.44817938  .00007178  00000-0  46851-3 0  9991,2 54802  53.2191  11.5614 0001876  58.0415 302.0760 15.08850885 44593,6917.847,95.437,541.01,538.414,0.0
54802.0,STARLINK-5426,PAYLOAD,2023-10-04 13:56:08,15.08856861,0.0001806,53.2188,10.9638,64.9522,295.1658,0.0010002,0.00015673,0.0,0 STARLINK-5426,1 54802U 22175AW  23277.58065729  .00015673  00000-0  10002-2 0  9996,2 54802  53.2188  10.9638 0001806  64.9522 295.1658 15.08856861 46776,6917.829,95.436,540.943,538.444,0.0
54802.0,STARLINK-5426,PAYLOAD,2023-10-04 23:28:27,15.08849375,0.0001555,53.2176,9.1809,83.0398,277.0771,0.00060095,9.291e-05,0.0,0 STARLINK-5426,1 54802U 22175AW  23277.97809482  .00009291  00000-0  60095-3 0  9998,2 54802  53.2176   9.1809 0001555  83.0398 277.0771 15.08849375 44671,6917.852,95.437,540.792,538.641,0.0
54802.0,STARLINK-5426,PAYLOAD,2023-10-05 10:36:09,15.08842056,0.0002028,53.218,7.0965,94.9632,265.1592,0.00019184,2.766e-05,0.0,0 STARLINK-5426,1 54802U 22175AW  23278.44177844  .00002766  00000-0  19184-3 0  9994,2 54802  53.2180   7.0965 0002028  94.9632 265.1592 15.08842056 44740,6917.874,95.437,541.142,538.336,0.0
54802.0,STARLINK-5426,PAYLOAD,2023-10-05 13:46:55,15.08852222,0.0001367,53.2176,6.5034,88.7726,271.3423,0.00089907,0.00014054,0.0,0 STARLINK-5426,1 54802U 22175AW  23278.57425620  .00014054  00000-0  89907-3 0  9999,2 54802  53.2176   6.5034 0001367  88.7726 271.3423 15.08852222 46926,6917.843,95.437,540.654,538.762,0.0
54802.0,STARLINK-5426,PAYLOAD,2023-10-06 10:26:57,15.08838841,0.0001419,53.2179,2.6369,102.201,257.9142,0.00060354,9.33e-05,0.0,0 STARLINK-5426,1 54802U 22175AW  23279.43538407  .00009330  00000-0  60354-3 0  9999,2 54802  53.2179   2.6369 0001419 102.2010 257.9142 15.08838841 44896,6917.884,95.438,540.731,538.767,0.0
54802.0,STARLINK-5426,PAYLOAD,2023-10-06 12:02:20,15.08843951,0.0001587,53.2178,2.3397,90.8586,269.2588,0.00075024,0.00011674,0.0,0 STARLINK-5426,1 54802U 22175AW  23279.50162470  .00011674  00000-0  75024-3 0  9994,2 54802  53.2178   2.3397 0001587  90.8586 269.2588 15.08843951 47069,6917.868,95.437,540.831,538.635,0.0
54802.0,STARLINK-5426,PAYLOAD,2023-10-06 13:37:43,15.08849424,0.0001589,53.2181,2.0419,95.775,264.3423,0.00092601,0.00014484,0.0,0 STARLINK-5426,1 54802U 22175AW  23279.56786383  .00014484  00000-0  92601-3 0  9997,2 54802  53.2181   2.0419 0001589  95.7750 264.3423 15.08849424 44910,6917.852,95.437,540.816,538.617,0.0
54802.0,STARLINK-5426,PAYLOAD,2023-10-06 23:10:02,15.08832156,0.000184,53.2191,0.2557,97.8195,262.3006,0.00069258,0.00010749,0.0,0 STARLINK-5426,1 54802U 22175AW  23279.96530708  .00010749  00000-0  69258-3 0  9991,2 54802  53.2191   0.2557 0001840  97.8195 262.3006 15.08832156 44975,6917.904,95.438,541.042,538.496,0.0
54802.0,STARLINK-5426,PAYLOAD,2023-10-07 10:17:44,15.08846711,0.0001752,53.2186,358.1771,94.2963,265.8229,0.00058568,9.047e-05,0.0,0 STARLINK-5426,1 54802U 22175AW  23280.42898671  .00009047  00000-0  58568-3 0  9991,2 54802  53.2186 358.1771 0001752  94.2963 265.8229 15.08846711 45044,6917.86,95.437,540.937,538.513,0.0
54802.0,STARLINK-5426,PAYLOAD,2023-10-07 11:53:07,15.08848564,0.0001745,53.2186,357.8795,92.4321,267.6871,0.00072289,0.00011238,0.0,0 STARLINK-5426,1 54802U 22175AW  23280.49522601  .00011238  00000-0  72289-3 0  9996,2 54802  53.2186 357.8795 0001745  92.4321 267.6871 15.08848564 47218,6917.854,95.437,540.926,538.512,0.0
54802.0,STARLINK-5426,PAYLOAD,2023-10-07 16:39:16,15.08863462,0.0001934,53.2187,356.9874,92.332,267.7894,0.0010588,0.00016614,0.0,0 STARLINK-5426,1 54802U 22175AW  23280.69394322  .00016614  00000-0  10588-2 0  9991,2 54802  53.2187 356.9874 0001934  92.3320 267.7894 15.08863462 45088,6917.809,95.436,541.012,538.336,0.0
54802.0,STARLINK-5426,PAYLOAD,2023-10-08 10:08:31,15.08844579,0.0001831,53.2186,353.7166,90.1897,269.9305,0.00033427,5.036e-05,0.0,0 STARLINK-5426,1 54802U 22175AW  23281.42258709  .00005036  00000-0  33427-3 0  9995,2 54802  53.2186 353.7166 0001831  90.1897 269.9305 15.08844579 45198,6917.866,95.437,540.998,538.465,0.0
54802.0,STARLINK-5426,PAYLOAD,2023-10-08 11:43:54,15.08849444,0.0001769,53.2188,353.4191,92.7303,267.3891,0.00051831,7.973e-05,0.0,0 STARLINK-5426,1 54802U 22175AW  23281.48882629  .00007973  00000-0  51831-3 0  9996,2 54802  53.2188 353.4191 0001769  92.7303 267.3891 15.08849444 47364,6917.852,95.437,540.94,538.493,0.0
54802.0,STARLINK-5426,PAYLOAD,2023-10-08 16:30:03,15.08862577,0.0001808,53.2189,352.5265,93.9187,266.2011,0.00075999,0.00011835,0.0,0 STARLINK-5426,1 54802U 22175AW  23281.68754186  .00011835  00000-0  75999-3 0  9997,2 54802  53.2189 352.5265 0001808  93.9187 266.2011 15.08862577 45232,6917.811,95.436,540.927,538.426,0.0
54802.0,STARLINK-5426,PAYLOAD,2023-10-09 08:23:55,15.08849706,0.0001674,53.2186,349.5537,104.7142,255.4035,0.0011112,0.00017446,0.0,0 STARLINK-5426,1 54802U 22175AW  23282.34994697  .00017446  00000-0  11112-2 0  9994,2 54802  53.2186 349.5537 0001674 104.7142 255.4035 15.08849706 45336,6917.851,95.437,540.874,538.558,0.0
54802.0,STARLINK-5426,PAYLOAD,2023-10-09 11:34:41,15.08856041,0.0001451,53.2188,348.9606,89.8297,270.2861,0.0019789,0.00031361,0.0,0 STARLINK-5426,1 54802U 22175AW  23282.48242698  .00031361  00000-0  19789-2 0  9996,2 54802  53.2188 348.9606 0001451  89.8297 270.2861 15.08856041 47519,6917.831,95.437,540.7,538.693,0.0
54802.0,STARLINK-5426,PAYLOAD,2023-10-09 16:20:50,15.08873426,0.0001381,53.2184,348.0669,84.3061,275.8088,0.002405,0.00038231,0.0,0 STARLINK-5426,1 54802U 22175AW  23282.68114342  .00038231  00000-0  24050-2 0  9992,2 54802  53.2184 348.0669 0001381  84.3061 275.8088 15.08873426 45387,6917.778,95.435,540.599,538.688,0.0
54802.0,STARLINK-5426,PAYLOAD,2023-10-10 11:25:28,15.08869704,0.0001393,53.2183,344.4992,100.2291,259.8859,0.0023637,0.00037562,0.0,0 STARLINK-5426,1 54802U 22175AW  23283.47602173  .00037562  00000-0  23637-2 0  9990,2 54802  53.2183 344.4992 0001393 100.2291 259.8859 15.08869704 45507,6917.79,95.436,540.618,538.691,0.0
54802.0,STARLINK-5426,PAYLOAD,2023-10-10 13:00:51,15.08876357,0.0001386,53.2183,344.2018,98.2566,261.8583,0.0025985,0.00041351,0.0,0 STARLINK-5426,1 54802U 22175AW  23283.54226026  .00041351  00000-0  25985-2 0  9996,2 54802  53.2183 344.2018 0001386  98.2566 261.8583 15.08876357 45517,6917.769,95.435,540.593,538.675,0.0
54802.0,STARLINK-5426,PAYLOAD,2023-10-11 09:40:52,15.08843174,0.000185,53.2186,340.3352,128.0242,232.0917,0.0012773,0.000201,0.0,0 STARLINK-5426,1 54802U 22175AW  23284.40338648  .00020100  00000-0  12773-2 0  9996,2 54802  53.2186 340.3352 0001850 128.0242 232.0917 15.08843174 45643,6917.871,95.437,541.015,538.456,0.0
54802.0,STARLINK-5426,PAYLOAD,2023-10-11 12:51:39,15.08836053,0.0001334,53.2179,339.7421,87.9189,272.1956,0.0010496,0.00016454,0.0,0 STARLINK-5426,1 54802U 22175AW  23284.53587050  .00016454  00000-0  10496-2 0  9990,2 54802  53.2179 339.7421 0001334  87.9189 272.1956 15.08836053 47822,6917.892,95.438,540.68,538.835,0.0
54802.0,STARLINK-5426,PAYLOAD,2023-10-11 14:27:02,15.08837328,0.0001371,53.2179,339.4445,85.3383,274.7765,0.00099918,0.00015649,0.0,0 STARLINK-5426,1 54802U 22175AW  23284.60211075  .00015649  00000-0  99918-3 0  9991,2 54802  53.2179 339.4445 0001371  85.3383 274.7765 15.08837328 45677,6917.889,95.438,540.702,538.805,0.0
54802.0,STARLINK-5426,PAYLOAD,2023-10-12 03:10:07,15.08839327,0.0001308,53.2173,337.0639,93.5165,266.5977,0.00054006,8.317e-05,0.0,0 STARLINK-5426,1 54802U 22175AW  23285.13203196  .00008317  00000-0  54006-3 0  9998,2 54802  53.2173 337.0639 0001308  93.5165 266.5977 15.08839327 45753,6917.882,95.438,540.652,538.843,0.0
54802.0,STARLINK-5426,PAYLOAD,2023-10-12 09:31:39,15.08859299,0.0001509,53.2173,335.8753,85.7524,274.364,0.0010651,0.00016713,0.0,0 STARLINK-5426,1 54802U 22175AW  23285.39698816  .00016713  00000-0  10651-2 0  9999,2 54802  53.2173 335.8753 0001509  85.7524 274.3640 15.08859299 45799,6917.821,95.436,540.73,538.643,0.0
54802.0,STARLINK-5426,PAYLOAD,2023-10-12 11:07:02,15.08864851,0.0001526,53.2174,335.5779,86.4291,273.6876,0.0012167,0.00019142,0.0,0 STARLINK-5426,1 54802U 22175AW  23285.46322670  .00019142  00000-0  12167-2 0  9992,2 54802  53.2174 335.5779 0001526  86.4291 273.6876 15.08864851 47967,6917.804,95.436,540.725,538.614,0.0
54802.0,STARLINK-5426,PAYLOAD,2023-10-13 03:00:53,15.08853097,0.0001448,53.2173,332.6035,109.8123,250.3026,0.00032706,4.923e-05,0.0,0 STARLINK-5426,1 54802U 22175AW  23286.12562366  .00004923  00000-0  32706-3 0  9997,2 54802  53.2173 332.6035 0001448 109.8123 250.3026 15.08853097 45907,6917.84,95.437,540.707,538.704,0.0
54802.0,STARLINK-5426,PAYLOAD,2023-10-13 10:57:49,15.08845478,0.0001622,53.217,331.1202,91.6243,268.4934,0.00018585,2.671e-05,0.0,0 STARLINK-5426,1 54802U 22175AW  23286.45682794  .00002671  00000-0  18585-3 0  9998,2 54802  53.2170 331.1202 0001622  91.6243 268.4934 15.08845478 45956,6917.864,95.437,540.851,538.607,0.0
54802.0,STARLINK-5426,PAYLOAD,2023-10-13 20:30:08,15.08840324,0.0001557,53.2169,329.3329,93.4738,266.6432,4.69e-05,4.58e-06,0.0,0 STARLINK-5426,1 54802U 22175AW  23286.85426869  .00000458  00000-0  46900-4 0  9995,2 54802  53.2169 329.3329 0001557  93.4738 266.6432 15.08840324 46015,6917.879,95.438,540.822,538.667,0.0
